EUTELSAT 7A             
1 28187U 04008A   25359.73083297  .00000122  00000+0  00000+0 0  9994
2 28187   5.3888  74.1030 0001085 216.0803 288.1845  1.00271911 79610
EUTELSAT 174A           
1 28924U 05052A   25359.47753181  .00000029  00000+0  00000+0 0  9996
2 28924   3.7776  78.7046 0006004 197.6273 163.8009  1.00270273 50592
EUTELSAT HOTBIRD 13B    
1 29270U 06032A   25359.92753133  .00000177  00000+0  00000+0 0  9991
2 29270   1.2128  84.2617 0003258 190.6809 186.7531  1.00268854 45571
EUTELSAT HOTBIRD 13C    
1 33459U 08065A   25359.89111831 -.00000262  00000+0  00000+0 0  9998
2 33459   2.5034  81.2778 0003435 191.3912  92.4806  1.00272851 45604
EUTELSAT 36B            
1 36101U 09065A   25359.93308604  .00000134  00000+0  00000+0 0  9994
2 36101   0.0595  46.8796 0005824 227.3960 206.7988  1.00272016 58978
EUTELSAT KA-SAT 9A      
1 37258U 10069A   25358.97557065  .00000082  00000+0  00000+0 0  9996
2 37258   0.0503 337.1011 0001418 205.5452 271.2933  1.00268060 42262
EUTELSAT 7 WEST A       
1 37816U 11051A   25359.25767242 -.00000039  00000+0  00000+0 0  9993
2 37816   0.0623 351.1845 0005192 240.0606 308.2335  1.00271161 52134
EUTELSAT 16A            
1 37836U 11057A   25359.84905729  .00000125  00000+0  00000+0 0  9995
2 37836   0.0557 351.1357 0005835 285.5642 139.5467  1.00271455  5582
